[Satellite]
VERSION=1.1
NAME=YAMAL 300K
NICKNAME=YAMAL 300K
TLE1=1 38978U 12061B   15054.71639837 -.00000255  00000-0  10000-3 0  9991
TLE2=2 38978   0.0593 270.4455 0000960 241.2928 349.4713  1.00271314  8440
